{
  "norad_id": 68648,
  "name": "QIANFAN GROUP 7 OBJECT N",
  "history": [
    {
      "epoch": "2026-04-16T03:56:22.033824Z",
      "apogee_km": 816.039624627374,
      "perigee_km": 794.087763306612,
      "latitude_deg": 5.906746841199744e-05,
      "longitude_deg": 64.31780602153097,
      "height_km": 818.5920198609558,
      "semi_major_axis_km": 7183.200693966993,
      "eccentricity": 0.001528,
      "inclination_deg": 88.9933,
      "raan_deg": 327.7254,
      "arg_perigee_deg": 197.6535,
      "mean_anomaly_deg": 162.413,
      "mean_motion_rev_day": 14.26020475
    }
  ]
}