QIANFAN GROUP 7 OBJECT N
1 68648U 26075N   26106.16414391 -.00038385  00000+0 -16175-1 0  9995
2 68648  88.9933 327.7254 0015280 197.6535 162.4130 14.26020475  1229
